<?xml version="1.0" encoding="UTF-8"?>
<gpx version="1.1" creator="altitude-maps sample" xmlns="http://www.topografix.com/GPX/1/1">
<metadata><name>Dipsea Trail (sample)</name><desc>Geometry from OpenStreetMap relation 19110403, (c) OpenStreetMap contributors, ODbL. Timestamps are synthetic.</desc></metadata>
<trk><name>Dipsea Trail (sample)</name><trkseg>
<trkpt lat="37.8923724" lon="-122.5820218"><time>2026-04-12T08:30:00Z</time></trkpt>
<trkpt lat="37.8924106" lon="-122.5820543"><time>2026-04-12T08:30:04Z</time></trkpt>
<trkpt lat="37.8930410" lon="-122.5836950"><time>2026-04-12T08:32:21Z</time></trkpt>
<trkpt lat="37.8931600" lon="-122.5838650"><time>2026-04-12T08:32:38Z</time></trkpt>
<trkpt lat="37.8933530" lon="-122.5843070"><time>2026-04-12T08:33:16Z</time></trkpt>
<trkpt lat="37.8935130" lon="-122.5846140"><time>2026-04-12T08:33:44Z</time></trkpt>
<trkpt lat="37.8936510" lon="-122.5849880"><time>2026-04-12T08:34:15Z</time></trkpt>
<trkpt lat="37.8938770" lon="-122.5854600"><time>2026-04-12T08:34:57Z</time></trkpt>
<trkpt lat="37.8939500" lon="-122.5856700"><time>2026-04-12T08:35:14Z</time></trkpt>
<trkpt lat="37.8942680" lon="-122.5862850"><time>2026-04-12T08:36:09Z</time></trkpt>
<trkpt lat="37.8945550" lon="-122.5870770"><time>2026-04-12T08:37:15Z</time></trkpt>
<trkpt lat="37.8948080" lon="-122.5876350"><time>2026-04-12T08:38:04Z</time></trkpt>
<trkpt lat="37.8949620" lon="-122.5878270"><time>2026-04-12T08:38:24Z</time></trkpt>
<trkpt lat="37.8951520" lon="-122.5879610"><time>2026-04-12T08:38:45Z</time></trkpt>
<trkpt lat="37.8952320" lon="-122.5880540"><time>2026-04-12T08:38:55Z</time></trkpt>
<trkpt lat="37.8953390" lon="-122.5882930"><time>2026-04-12T08:39:16Z</time></trkpt>
<trkpt lat="37.8954440" lon="-122.5884800"><time>2026-04-12T08:39:33Z</time></trkpt>
<trkpt lat="37.8958380" lon="-122.5890820"><time>2026-04-12T08:40:32Z</time></trkpt>
<trkpt lat="37.8958650" lon="-122.5891660"><time>2026-04-12T08:40:39Z</time></trkpt>
<trkpt lat="37.8958640" lon="-122.5892110"><time>2026-04-12T08:40:42Z</time></trkpt>
<trkpt lat="37.8958200" lon="-122.5893860"><time>2026-04-12T08:40:56Z</time></trkpt>
<trkpt lat="37.8958200" lon="-122.5894770"><time>2026-04-12T08:41:03Z</time></trkpt>
<trkpt lat="37.8959040" lon="-122.5898290"><time>2026-04-12T08:41:31Z</time></trkpt>
<trkpt lat="37.8959970" lon="-122.5903680"><time>2026-04-12T08:42:12Z</time></trkpt>
<trkpt lat="37.8960830" lon="-122.5907180"><time>2026-04-12T08:42:40Z</time></trkpt>
<trkpt lat="37.8961120" lon="-122.5908980"><time>2026-04-12T08:42:54Z</time></trkpt>
<trkpt lat="37.8960750" lon="-122.5916290"><time>2026-04-12T08:43:49Z</time></trkpt>
<trkpt lat="37.8961000" lon="-122.5917620"><time>2026-04-12T08:43:59Z</time></trkpt>
<trkpt lat="37.8961880" lon="-122.5919060"><time>2026-04-12T08:44:13Z</time></trkpt>
<trkpt lat="37.8962710" lon="-122.5919950"><time>2026-04-12T08:44:23Z</time></trkpt>
<trkpt lat="37.8963650" lon="-122.5920630"><time>2026-04-12T08:44:34Z</time></trkpt>
<trkpt lat="37.8964380" lon="-122.5921640"><time>2026-04-12T08:44:44Z</time></trkpt>
<trkpt lat="37.8965680" lon="-122.5924400"><time>2026-04-12T08:45:08Z</time></trkpt>
<trkpt lat="37.8967190" lon="-122.5929070"><time>2026-04-12T08:45:46Z</time></trkpt>
<trkpt lat="37.8968480" lon="-122.5931820"><time>2026-04-12T08:46:10Z</time></trkpt>
<trkpt lat="37.8971610" lon="-122.5936270"><time>2026-04-12T08:46:55Z</time></trkpt>
<trkpt lat="37.8972460" lon="-122.5937130"><time>2026-04-12T08:47:05Z</time></trkpt>
<trkpt lat="37.8973750" lon="-122.5937950"><time>2026-04-12T08:47:19Z</time></trkpt>
<trkpt lat="37.8974310" lon="-122.5938520"><time>2026-04-12T08:47:26Z</time></trkpt>
<trkpt lat="37.8974770" lon="-122.5939750"><time>2026-04-12T08:47:36Z</time></trkpt>
<trkpt lat="37.8975270" lon="-122.5942430"><time>2026-04-12T08:47:57Z</time></trkpt>
<trkpt lat="37.8975800" lon="-122.5943620"><time>2026-04-12T08:48:07Z</time></trkpt>
<trkpt lat="37.8976400" lon="-122.5944130"><time>2026-04-12T08:48:14Z</time></trkpt>
<trkpt lat="37.8978760" lon="-122.5945280"><time>2026-04-12T08:48:38Z</time></trkpt>
<trkpt lat="37.8979480" lon="-122.5946290"><time>2026-04-12T08:48:49Z</time></trkpt>
<trkpt lat="37.8979820" lon="-122.5947100"><time>2026-04-12T08:48:55Z</time></trkpt>
<trkpt lat="37.8981000" lon="-122.5951440"><time>2026-04-12T08:49:30Z</time></trkpt>
<trkpt lat="37.8981863" lon="-122.5955532"><time>2026-04-12T08:50:02Z</time></trkpt>
<trkpt lat="37.8981369" lon="-122.5962923"><time>2026-04-12T08:50:58Z</time></trkpt>
<trkpt lat="37.8981412" lon="-122.5966681"><time>2026-04-12T08:51:26Z</time></trkpt>
<trkpt lat="37.8981510" lon="-122.5968045"><time>2026-04-12T08:51:36Z</time></trkpt>
<trkpt lat="37.8981483" lon="-122.5969136"><time>2026-04-12T08:51:45Z</time></trkpt>
<trkpt lat="37.8979920" lon="-122.5970960"><time>2026-04-12T08:52:05Z</time></trkpt>
<trkpt lat="37.8979428" lon="-122.5971842"><time>2026-04-12T08:52:13Z</time></trkpt>
<trkpt lat="37.8979291" lon="-122.5972967"><time>2026-04-12T08:52:22Z</time></trkpt>
<trkpt lat="37.8979361" lon="-122.5974512"><time>2026-04-12T08:52:33Z</time></trkpt>
<trkpt lat="37.8979534" lon="-122.5976054"><time>2026-04-12T08:52:45Z</time></trkpt>
<trkpt lat="37.8980082" lon="-122.5978766"><time>2026-04-12T08:53:06Z</time></trkpt>
<trkpt lat="37.8980245" lon="-122.5980077"><time>2026-04-12T08:53:16Z</time></trkpt>
<trkpt lat="37.8980058" lon="-122.5981598"><time>2026-04-12T08:53:28Z</time></trkpt>
<trkpt lat="37.8979901" lon="-122.5982439"><time>2026-04-12T08:53:34Z</time></trkpt>
<trkpt lat="37.8979596" lon="-122.5983147"><time>2026-04-12T08:53:40Z</time></trkpt>
<trkpt lat="37.8979215" lon="-122.5983734"><time>2026-04-12T08:53:46Z</time></trkpt>
<trkpt lat="37.8979463" lon="-122.5984103"><time>2026-04-12T08:53:50Z</time></trkpt>
<trkpt lat="37.8979659" lon="-122.5984259"><time>2026-04-12T08:53:52Z</time></trkpt>
<trkpt lat="37.8979728" lon="-122.5984534"><time>2026-04-12T08:53:54Z</time></trkpt>
<trkpt lat="37.8979649" lon="-122.5984852"><time>2026-04-12T08:53:56Z</time></trkpt>
<trkpt lat="37.8979403" lon="-122.5985276"><time>2026-04-12T08:54:00Z</time></trkpt>
<trkpt lat="37.8979205" lon="-122.5985867"><time>2026-04-12T08:54:05Z</time></trkpt>
<trkpt lat="37.8979368" lon="-122.5988263"><time>2026-04-12T08:54:23Z</time></trkpt>
<trkpt lat="37.8980850" lon="-122.5991880"><time>2026-04-12T08:54:54Z</time></trkpt>
<trkpt lat="37.8981561" lon="-122.5995214"><time>2026-04-12T08:55:20Z</time></trkpt>
<trkpt lat="37.8981638" lon="-122.5996660"><time>2026-04-12T08:55:31Z</time></trkpt>
<trkpt lat="37.8981406" lon="-122.5998333"><time>2026-04-12T08:55:44Z</time></trkpt>
<trkpt lat="37.8981052" lon="-122.5999732"><time>2026-04-12T08:55:55Z</time></trkpt>
<trkpt lat="37.8980187" lon="-122.6000984"><time>2026-04-12T08:56:07Z</time></trkpt>
<trkpt lat="37.8979060" lon="-122.6002648"><time>2026-04-12T08:56:24Z</time></trkpt>
<trkpt lat="37.8978221" lon="-122.6003239"><time>2026-04-12T08:56:33Z</time></trkpt>
<trkpt lat="37.8977609" lon="-122.6003776"><time>2026-04-12T08:56:40Z</time></trkpt>
<trkpt lat="37.8976988" lon="-122.6004613"><time>2026-04-12T08:56:49Z</time></trkpt>
<trkpt lat="37.8976537" lon="-122.6004942"><time>2026-04-12T08:56:54Z</time></trkpt>
<trkpt lat="37.8975872" lon="-122.6005773"><time>2026-04-12T08:57:03Z</time></trkpt>
<trkpt lat="37.8975605" lon="-122.6006336"><time>2026-04-12T08:57:08Z</time></trkpt>
<trkpt lat="37.8975154" lon="-122.6006621"><time>2026-04-12T08:57:12Z</time></trkpt>
<trkpt lat="37.8974351" lon="-122.6007008"><time>2026-04-12T08:57:21Z</time></trkpt>
<trkpt lat="37.8974082" lon="-122.6008213"><time>2026-04-12T08:57:30Z</time></trkpt>
<trkpt lat="37.8973727" lon="-122.6008938"><time>2026-04-12T08:57:36Z</time></trkpt>
<trkpt lat="37.8973364" lon="-122.6010656"><time>2026-04-12T08:57:50Z</time></trkpt>
<trkpt lat="37.8973423" lon="-122.6012148"><time>2026-04-12T08:58:01Z</time></trkpt>
<trkpt lat="37.8973647" lon="-122.6013031"><time>2026-04-12T08:58:08Z</time></trkpt>
<trkpt lat="37.8973559" lon="-122.6013780"><time>2026-04-12T08:58:14Z</time></trkpt>
<trkpt lat="37.8973696" lon="-122.6014819"><time>2026-04-12T08:58:22Z</time></trkpt>
<trkpt lat="37.8974015" lon="-122.6015993"><time>2026-04-12T08:58:31Z</time></trkpt>
<trkpt lat="37.8973952" lon="-122.6017045"><time>2026-04-12T08:58:39Z</time></trkpt>
<trkpt lat="37.8973669" lon="-122.6018091"><time>2026-04-12T08:58:47Z</time></trkpt>
<trkpt lat="37.8972180" lon="-122.6021120"><time>2026-04-12T08:59:14Z</time></trkpt>
<trkpt lat="37.8970470" lon="-122.6024070"><time>2026-04-12T08:59:42Z</time></trkpt>
<trkpt lat="37.8970157" lon="-122.6025653"><time>2026-04-12T08:59:54Z</time></trkpt>
<trkpt lat="37.8969680" lon="-122.6028070"><time>2026-04-12T09:00:13Z</time></trkpt>
<trkpt lat="37.8969512" lon="-122.6028850"><time>2026-04-12T09:00:19Z</time></trkpt>
<trkpt lat="37.8969320" lon="-122.6029441"><time>2026-04-12T09:00:24Z</time></trkpt>
<trkpt lat="37.8969227" lon="-122.6029586"><time>2026-04-12T09:00:25Z</time></trkpt>
<trkpt lat="37.8969116" lon="-122.6029657"><time>2026-04-12T09:00:26Z</time></trkpt>
<trkpt lat="37.8968312" lon="-122.6029812"><time>2026-04-12T09:00:34Z</time></trkpt>
<trkpt lat="37.8966140" lon="-122.6030410"><time>2026-04-12T09:00:55Z</time></trkpt>
<trkpt lat="37.8965180" lon="-122.6031010"><time>2026-04-12T09:01:06Z</time></trkpt>
<trkpt lat="37.8963000" lon="-122.6034660"><time>2026-04-12T09:01:40Z</time></trkpt>
<trkpt lat="37.8962140" lon="-122.6036680"><time>2026-04-12T09:01:57Z</time></trkpt>
<trkpt lat="37.8961410" lon="-122.6039270"><time>2026-04-12T09:02:18Z</time></trkpt>
<trkpt lat="37.8961280" lon="-122.6041100"><time>2026-04-12T09:02:32Z</time></trkpt>
<trkpt lat="37.8960460" lon="-122.6043110"><time>2026-04-12T09:02:49Z</time></trkpt>
<trkpt lat="37.8960740" lon="-122.6045360"><time>2026-04-12T09:03:06Z</time></trkpt>
<trkpt lat="37.8959980" lon="-122.6048390"><time>2026-04-12T09:03:30Z</time></trkpt>
<trkpt lat="37.8960030" lon="-122.6052050"><time>2026-04-12T09:03:57Z</time></trkpt>
<trkpt lat="37.8958870" lon="-122.6055400"><time>2026-04-12T09:04:25Z</time></trkpt>
<trkpt lat="37.8958650" lon="-122.6057220"><time>2026-04-12T09:04:39Z</time></trkpt>
<trkpt lat="37.8958660" lon="-122.6059050"><time>2026-04-12T09:04:53Z</time></trkpt>
<trkpt lat="37.8958320" lon="-122.6060830"><time>2026-04-12T09:05:06Z</time></trkpt>
<trkpt lat="37.8957110" lon="-122.6063640"><time>2026-04-12T09:05:31Z</time></trkpt>
<trkpt lat="37.8955820" lon="-122.6065220"><time>2026-04-12T09:05:48Z</time></trkpt>
<trkpt lat="37.8954885" lon="-122.6067170"><time>2026-04-12T09:06:05Z</time></trkpt>
<trkpt lat="37.8954213" lon="-122.6068200"><time>2026-04-12T09:06:15Z</time></trkpt>
<trkpt lat="37.8952921" lon="-122.6069727"><time>2026-04-12T09:06:32Z</time></trkpt>
<trkpt lat="37.8951716" lon="-122.6071038"><time>2026-04-12T09:06:47Z</time></trkpt>
<trkpt lat="37.8951267" lon="-122.6071412"><time>2026-04-12T09:06:52Z</time></trkpt>
<trkpt lat="37.8950811" lon="-122.6071572"><time>2026-04-12T09:06:57Z</time></trkpt>
<trkpt lat="37.8950438" lon="-122.6071639"><time>2026-04-12T09:07:00Z</time></trkpt>
<trkpt lat="37.8948675" lon="-122.6071349"><time>2026-04-12T09:07:17Z</time></trkpt>
<trkpt lat="37.8947992" lon="-122.6071309"><time>2026-04-12T09:07:24Z</time></trkpt>
<trkpt lat="37.8947625" lon="-122.6071376"><time>2026-04-12T09:07:27Z</time></trkpt>
<trkpt lat="37.8945398" lon="-122.6072602"><time>2026-04-12T09:07:50Z</time></trkpt>
<trkpt lat="37.8944975" lon="-122.6072743"><time>2026-04-12T09:07:55Z</time></trkpt>
<trkpt lat="37.8943897" lon="-122.6072814"><time>2026-04-12T09:08:05Z</time></trkpt>
<trkpt lat="37.8942416" lon="-122.6073182"><time>2026-04-12T09:08:19Z</time></trkpt>
<trkpt lat="37.8941753" lon="-122.6073479"><time>2026-04-12T09:08:26Z</time></trkpt>
<trkpt lat="37.8941552" lon="-122.6073664"><time>2026-04-12T09:08:28Z</time></trkpt>
<trkpt lat="37.8941231" lon="-122.6074270"><time>2026-04-12T09:08:34Z</time></trkpt>
<trkpt lat="37.8940854" lon="-122.6075442"><time>2026-04-12T09:08:43Z</time></trkpt>
<trkpt lat="37.8940107" lon="-122.6076875"><time>2026-04-12T09:08:56Z</time></trkpt>
<trkpt lat="37.8939552" lon="-122.6077692"><time>2026-04-12T09:09:04Z</time></trkpt>
<trkpt lat="37.8939163" lon="-122.6078013"><time>2026-04-12T09:09:09Z</time></trkpt>
<trkpt lat="37.8936894" lon="-122.6078358"><time>2026-04-12T09:09:31Z</time></trkpt>
<trkpt lat="37.8935859" lon="-122.6079021"><time>2026-04-12T09:09:42Z</time></trkpt>
<trkpt lat="37.8934275" lon="-122.6079476"><time>2026-04-12T09:09:57Z</time></trkpt>
<trkpt lat="37.8931925" lon="-122.6079369"><time>2026-04-12T09:10:20Z</time></trkpt>
<trkpt lat="37.8931332" lon="-122.6079717"><time>2026-04-12T09:10:26Z</time></trkpt>
<trkpt lat="37.8930930" lon="-122.6080629"><time>2026-04-12T09:10:34Z</time></trkpt>
<trkpt lat="37.8931121" lon="-122.6086798"><time>2026-04-12T09:11:20Z</time></trkpt>
<trkpt lat="37.8931228" lon="-122.6087938"><time>2026-04-12T09:11:29Z</time></trkpt>
<trkpt lat="37.8931798" lon="-122.6088890"><time>2026-04-12T09:11:38Z</time></trkpt>
<trkpt lat="37.8932602" lon="-122.6089400"><time>2026-04-12T09:11:46Z</time></trkpt>
<trkpt lat="37.8933513" lon="-122.6089454"><time>2026-04-12T09:11:55Z</time></trkpt>
<trkpt lat="37.8934550" lon="-122.6089641"><time>2026-04-12T09:12:05Z</time></trkpt>
<trkpt lat="37.8935058" lon="-122.6090151"><time>2026-04-12T09:12:11Z</time></trkpt>
<trkpt lat="37.8935185" lon="-122.6091814"><time>2026-04-12T09:12:24Z</time></trkpt>
<trkpt lat="37.8934232" lon="-122.6094550"><time>2026-04-12T09:12:46Z</time></trkpt>
<trkpt lat="37.8932772" lon="-122.6096508"><time>2026-04-12T09:13:07Z</time></trkpt>
<trkpt lat="37.8931756" lon="-122.6097447"><time>2026-04-12T09:13:19Z</time></trkpt>
<trkpt lat="37.8930359" lon="-122.6099271"><time>2026-04-12T09:13:38Z</time></trkpt>
<trkpt lat="37.8928094" lon="-122.6102167"><time>2026-04-12T09:14:09Z</time></trkpt>
<trkpt lat="37.8927501" lon="-122.6103321"><time>2026-04-12T09:14:19Z</time></trkpt>
<trkpt lat="37.8927097" lon="-122.6105019"><time>2026-04-12T09:14:32Z</time></trkpt>
<trkpt lat="37.8927368" lon="-122.6106907"><time>2026-04-12T09:14:47Z</time></trkpt>
<trkpt lat="37.8927946" lon="-122.6108444"><time>2026-04-12T09:15:00Z</time></trkpt>
<trkpt lat="37.8927946" lon="-122.6110321"><time>2026-04-12T09:15:14Z</time></trkpt>
<trkpt lat="37.8927861" lon="-122.6112279"><time>2026-04-12T09:15:28Z</time></trkpt>
<trkpt lat="37.8927798" lon="-122.6114264"><time>2026-04-12T09:15:43Z</time></trkpt>
<trkpt lat="37.8927395" lon="-122.6116142"><time>2026-04-12T09:15:58Z</time></trkpt>
<trkpt lat="37.8926940" lon="-122.6117752"><time>2026-04-12T09:16:11Z</time></trkpt>
<trkpt lat="37.8926697" lon="-122.6119280"><time>2026-04-12T09:16:23Z</time></trkpt>
<trkpt lat="37.8926633" lon="-122.6119950"><time>2026-04-12T09:16:28Z</time></trkpt>
<trkpt lat="37.8925998" lon="-122.6120675"><time>2026-04-12T09:16:36Z</time></trkpt>
<trkpt lat="37.8925109" lon="-122.6121452"><time>2026-04-12T09:16:46Z</time></trkpt>
<trkpt lat="37.8924390" lon="-122.6122767"><time>2026-04-12T09:16:58Z</time></trkpt>
<trkpt lat="37.8924220" lon="-122.6124886"><time>2026-04-12T09:17:14Z</time></trkpt>
<trkpt lat="37.8923988" lon="-122.6128319"><time>2026-04-12T09:17:40Z</time></trkpt>
<trkpt lat="37.8923776" lon="-122.6129821"><time>2026-04-12T09:17:52Z</time></trkpt>
<trkpt lat="37.8923099" lon="-122.6130867"><time>2026-04-12T09:18:02Z</time></trkpt>
<trkpt lat="37.8922866" lon="-122.6131645"><time>2026-04-12T09:18:08Z</time></trkpt>
<trkpt lat="37.8922741" lon="-122.6132600"><time>2026-04-12T09:18:15Z</time></trkpt>
<trkpt lat="37.8922887" lon="-122.6133925"><time>2026-04-12T09:18:26Z</time></trkpt>
<trkpt lat="37.8923353" lon="-122.6135467"><time>2026-04-12T09:18:38Z</time></trkpt>
<trkpt lat="37.8923511" lon="-122.6136164"><time>2026-04-12T09:18:43Z</time></trkpt>
<trkpt lat="37.8923776" lon="-122.6136285"><time>2026-04-12T09:18:46Z</time></trkpt>
<trkpt lat="37.8924115" lon="-122.6136191"><time>2026-04-12T09:18:49Z</time></trkpt>
<trkpt lat="37.8924358" lon="-122.6135534"><time>2026-04-12T09:18:55Z</time></trkpt>
<trkpt lat="37.8925004" lon="-122.6132986"><time>2026-04-12T09:19:15Z</time></trkpt>
<trkpt lat="37.8925829" lon="-122.6132101"><time>2026-04-12T09:19:25Z</time></trkpt>
<trkpt lat="37.8927004" lon="-122.6130492"><time>2026-04-12T09:19:42Z</time></trkpt>
<trkpt lat="37.8927205" lon="-122.6129848"><time>2026-04-12T09:19:47Z</time></trkpt>
<trkpt lat="37.8927110" lon="-122.6129043"><time>2026-04-12T09:19:53Z</time></trkpt>
<trkpt lat="37.8927311" lon="-122.6128842"><time>2026-04-12T09:19:56Z</time></trkpt>
<trkpt lat="37.8927512" lon="-122.6128963"><time>2026-04-12T09:19:58Z</time></trkpt>
<trkpt lat="37.8927660" lon="-122.6129352"><time>2026-04-12T09:20:01Z</time></trkpt>
<trkpt lat="37.8927766" lon="-122.6130022"><time>2026-04-12T09:20:06Z</time></trkpt>
<trkpt lat="37.8927617" lon="-122.6131141"><time>2026-04-12T09:20:15Z</time></trkpt>
<trkpt lat="37.8927205" lon="-122.6132061"><time>2026-04-12T09:20:23Z</time></trkpt>
<trkpt lat="37.8926782" lon="-122.6132745"><time>2026-04-12T09:20:29Z</time></trkpt>
<trkpt lat="37.8926538" lon="-122.6133858"><time>2026-04-12T09:20:38Z</time></trkpt>
<trkpt lat="37.8926580" lon="-122.6134743"><time>2026-04-12T09:20:45Z</time></trkpt>
<trkpt lat="37.8926909" lon="-122.6135628"><time>2026-04-12T09:20:52Z</time></trkpt>
<trkpt lat="37.8927702" lon="-122.6136567"><time>2026-04-12T09:21:02Z</time></trkpt>
<trkpt lat="37.8928972" lon="-122.6137210"><time>2026-04-12T09:21:15Z</time></trkpt>
<trkpt lat="37.8930094" lon="-122.6137720"><time>2026-04-12T09:21:27Z</time></trkpt>
<trkpt lat="37.8930697" lon="-122.6138860"><time>2026-04-12T09:21:37Z</time></trkpt>
<trkpt lat="37.8931227" lon="-122.6140040"><time>2026-04-12T09:21:47Z</time></trkpt>
<trkpt lat="37.8931967" lon="-122.6140630"><time>2026-04-12T09:21:56Z</time></trkpt>
<trkpt lat="37.8932666" lon="-122.6141046"><time>2026-04-12T09:22:03Z</time></trkpt>
<trkpt lat="37.8933460" lon="-122.6141904"><time>2026-04-12T09:22:13Z</time></trkpt>
<trkpt lat="37.8934169" lon="-122.6142950"><time>2026-04-12T09:22:23Z</time></trkpt>
<trkpt lat="37.8934412" lon="-122.6143581"><time>2026-04-12T09:22:29Z</time></trkpt>
<trkpt lat="37.8934412" lon="-122.6144546"><time>2026-04-12T09:22:36Z</time></trkpt>
<trkpt lat="37.8934063" lon="-122.6145405"><time>2026-04-12T09:22:43Z</time></trkpt>
<trkpt lat="37.8933798" lon="-122.6146759"><time>2026-04-12T09:22:54Z</time></trkpt>
<trkpt lat="37.8933767" lon="-122.6147859"><time>2026-04-12T09:23:02Z</time></trkpt>
<trkpt lat="37.8933661" lon="-122.6148838"><time>2026-04-12T09:23:09Z</time></trkpt>
<trkpt lat="37.8933608" lon="-122.6150192"><time>2026-04-12T09:23:20Z</time></trkpt>
<trkpt lat="37.8933693" lon="-122.6151118"><time>2026-04-12T09:23:27Z</time></trkpt>
<trkpt lat="37.8934063" lon="-122.6152338"><time>2026-04-12T09:23:37Z</time></trkpt>
<trkpt lat="37.8934037" lon="-122.6153907"><time>2026-04-12T09:23:48Z</time></trkpt>
<trkpt lat="37.8933957" lon="-122.6155114"><time>2026-04-12T09:23:57Z</time></trkpt>
<trkpt lat="37.8933576" lon="-122.6155852"><time>2026-04-12T09:24:04Z</time></trkpt>
<trkpt lat="37.8932920" lon="-122.6156281"><time>2026-04-12T09:24:11Z</time></trkpt>
<trkpt lat="37.8931597" lon="-122.6156496"><time>2026-04-12T09:24:24Z</time></trkpt>
<trkpt lat="37.8930052" lon="-122.6156643"><time>2026-04-12T09:24:39Z</time></trkpt>
<trkpt lat="37.8928782" lon="-122.6157086"><time>2026-04-12T09:24:51Z</time></trkpt>
<trkpt lat="37.8927776" lon="-122.6157770"><time>2026-04-12T09:25:02Z</time></trkpt>
<trkpt lat="37.8926353" lon="-122.6159674"><time>2026-04-12T09:25:22Z</time></trkpt>
<trkpt lat="37.8925104" lon="-122.6161551"><time>2026-04-12T09:25:40Z</time></trkpt>
<trkpt lat="37.8923495" lon="-122.6163724"><time>2026-04-12T09:26:03Z</time></trkpt>
<trkpt lat="37.8922485" lon="-122.6164475"><time>2026-04-12T09:26:14Z</time></trkpt>
<trkpt lat="37.8921860" lon="-122.6164985"><time>2026-04-12T09:26:21Z</time></trkpt>
<trkpt lat="37.8921342" lon="-122.6165521"><time>2026-04-12T09:26:27Z</time></trkpt>
<trkpt lat="37.8921183" lon="-122.6166701"><time>2026-04-12T09:26:36Z</time></trkpt>
<trkpt lat="37.8921479" lon="-122.6167560"><time>2026-04-12T09:26:43Z</time></trkpt>
<trkpt lat="37.8922268" lon="-122.6168793"><time>2026-04-12T09:26:55Z</time></trkpt>
<trkpt lat="37.8923056" lon="-122.6169813"><time>2026-04-12T09:27:06Z</time></trkpt>
<trkpt lat="37.8924115" lon="-122.6171127"><time>2026-04-12T09:27:20Z</time></trkpt>
<trkpt lat="37.8925427" lon="-122.6173165"><time>2026-04-12T09:27:40Z</time></trkpt>
<trkpt lat="37.8926676" lon="-122.6174936"><time>2026-04-12T09:27:58Z</time></trkpt>
<trkpt lat="37.8927014" lon="-122.6176223"><time>2026-04-12T09:28:08Z</time></trkpt>
<trkpt lat="37.8926845" lon="-122.6177511"><time>2026-04-12T09:28:18Z</time></trkpt>
<trkpt lat="37.8925850" lon="-122.6181668"><time>2026-04-12T09:28:51Z</time></trkpt>
<trkpt lat="37.8925850" lon="-122.6182821"><time>2026-04-12T09:28:59Z</time></trkpt>
<trkpt lat="37.8925427" lon="-122.6183680"><time>2026-04-12T09:29:07Z</time></trkpt>
<trkpt lat="37.8924538" lon="-122.6184002"><time>2026-04-12T09:29:16Z</time></trkpt>
<trkpt lat="37.8923538" lon="-122.6183680"><time>2026-04-12T09:29:26Z</time></trkpt>
<trkpt lat="37.8923395" lon="-122.6183639"><time>2026-04-12T09:29:27Z</time></trkpt>
<trkpt lat="37.8922247" lon="-122.6183090"><time>2026-04-12T09:29:39Z</time></trkpt>
<trkpt lat="37.8920680" lon="-122.6181963"><time>2026-04-12T09:29:56Z</time></trkpt>
<trkpt lat="37.8919585" lon="-122.6180810"><time>2026-04-12T09:30:10Z</time></trkpt>
<trkpt lat="37.8918950" lon="-122.6180005"><time>2026-04-12T09:30:18Z</time></trkpt>
<trkpt lat="37.8918251" lon="-122.6179791"><time>2026-04-12T09:30:25Z</time></trkpt>
<trkpt lat="37.8918251" lon="-122.6180220"><time>2026-04-12T09:30:28Z</time></trkpt>
<trkpt lat="37.8918298" lon="-122.6181041"><time>2026-04-12T09:30:34Z</time></trkpt>
<trkpt lat="37.8918274" lon="-122.6181740"><time>2026-04-12T09:30:40Z</time></trkpt>
<trkpt lat="37.8918289" lon="-122.6182258"><time>2026-04-12T09:30:44Z</time></trkpt>
<trkpt lat="37.8918461" lon="-122.6183317"><time>2026-04-12T09:30:52Z</time></trkpt>
<trkpt lat="37.8918953" lon="-122.6185793"><time>2026-04-12T09:31:11Z</time></trkpt>
<trkpt lat="37.8918971" lon="-122.6186397"><time>2026-04-12T09:31:16Z</time></trkpt>
<trkpt lat="37.8918997" lon="-122.6186740"><time>2026-04-12T09:31:18Z</time></trkpt>
<trkpt lat="37.8919193" lon="-122.6187512"><time>2026-04-12T09:31:24Z</time></trkpt>
<trkpt lat="37.8919451" lon="-122.6188067"><time>2026-04-12T09:31:29Z</time></trkpt>
<trkpt lat="37.8919633" lon="-122.6188455"><time>2026-04-12T09:31:33Z</time></trkpt>
<trkpt lat="37.8919725" lon="-122.6188879"><time>2026-04-12T09:31:36Z</time></trkpt>
<trkpt lat="37.8920306" lon="-122.6189756"><time>2026-04-12T09:31:44Z</time></trkpt>
<trkpt lat="37.8921250" lon="-122.6191079"><time>2026-04-12T09:31:58Z</time></trkpt>
<trkpt lat="37.8922155" lon="-122.6192146"><time>2026-04-12T09:32:10Z</time></trkpt>
<trkpt lat="37.8922311" lon="-122.6192513"><time>2026-04-12T09:32:13Z</time></trkpt>
<trkpt lat="37.8922839" lon="-122.6193125"><time>2026-04-12T09:32:20Z</time></trkpt>
<trkpt lat="37.8923412" lon="-122.6193621"><time>2026-04-12T09:32:26Z</time></trkpt>
<trkpt lat="37.8923823" lon="-122.6194196"><time>2026-04-12T09:32:32Z</time></trkpt>
<trkpt lat="37.8923965" lon="-122.6194809"><time>2026-04-12T09:32:37Z</time></trkpt>
<trkpt lat="37.8923978" lon="-122.6195030"><time>2026-04-12T09:32:39Z</time></trkpt>
<trkpt lat="37.8923881" lon="-122.6195171"><time>2026-04-12T09:32:40Z</time></trkpt>
<trkpt lat="37.8923613" lon="-122.6195507"><time>2026-04-12T09:32:44Z</time></trkpt>
<trkpt lat="37.8923410" lon="-122.6195762"><time>2026-04-12T09:32:46Z</time></trkpt>
<trkpt lat="37.8923465" lon="-122.6196027"><time>2026-04-12T09:32:48Z</time></trkpt>
<trkpt lat="37.8923647" lon="-122.6196459"><time>2026-04-12T09:32:52Z</time></trkpt>
<trkpt lat="37.8924033" lon="-122.6197228"><time>2026-04-12T09:32:59Z</time></trkpt>
<trkpt lat="37.8924187" lon="-122.6197918"><time>2026-04-12T09:33:04Z</time></trkpt>
<trkpt lat="37.8924215" lon="-122.6198303"><time>2026-04-12T09:33:07Z</time></trkpt>
<trkpt lat="37.8924068" lon="-122.6198513"><time>2026-04-12T09:33:09Z</time></trkpt>
<trkpt lat="37.8924022" lon="-122.6198714"><time>2026-04-12T09:33:11Z</time></trkpt>
<trkpt lat="37.8923937" lon="-122.6199174"><time>2026-04-12T09:33:15Z</time></trkpt>
<trkpt lat="37.8923518" lon="-122.6200470"><time>2026-04-12T09:33:25Z</time></trkpt>
<trkpt lat="37.8923226" lon="-122.6201157"><time>2026-04-12T09:33:31Z</time></trkpt>
<trkpt lat="37.8922690" lon="-122.6201987"><time>2026-04-12T09:33:39Z</time></trkpt>
<trkpt lat="37.8921622" lon="-122.6203082"><time>2026-04-12T09:33:52Z</time></trkpt>
<trkpt lat="37.8920441" lon="-122.6203907"><time>2026-04-12T09:34:05Z</time></trkpt>
<trkpt lat="37.8920071" lon="-122.6204079"><time>2026-04-12T09:34:09Z</time></trkpt>
<trkpt lat="37.8919589" lon="-122.6204817"><time>2026-04-12T09:34:16Z</time></trkpt>
<trkpt lat="37.8919036" lon="-122.6205259"><time>2026-04-12T09:34:22Z</time></trkpt>
<trkpt lat="37.8918371" lon="-122.6206286"><time>2026-04-12T09:34:32Z</time></trkpt>
<trkpt lat="37.8917922" lon="-122.6207286"><time>2026-04-12T09:34:41Z</time></trkpt>
<trkpt lat="37.8917808" lon="-122.6207810"><time>2026-04-12T09:34:45Z</time></trkpt>
<trkpt lat="37.8917631" lon="-122.6208150"><time>2026-04-12T09:34:48Z</time></trkpt>
<trkpt lat="37.8917309" lon="-122.6208484"><time>2026-04-12T09:34:52Z</time></trkpt>
<trkpt lat="37.8917082" lon="-122.6208856"><time>2026-04-12T09:34:56Z</time></trkpt>
<trkpt lat="37.8916680" lon="-122.6209261"><time>2026-04-12T09:35:00Z</time></trkpt>
<trkpt lat="37.8915946" lon="-122.6210238"><time>2026-04-12T09:35:11Z</time></trkpt>
<trkpt lat="37.8915186" lon="-122.6210811"><time>2026-04-12T09:35:19Z</time></trkpt>
<trkpt lat="37.8914335" lon="-122.6211521"><time>2026-04-12T09:35:29Z</time></trkpt>
<trkpt lat="37.8913716" lon="-122.6211736"><time>2026-04-12T09:35:35Z</time></trkpt>
<trkpt lat="37.8913457" lon="-122.6212178"><time>2026-04-12T09:35:39Z</time></trkpt>
<trkpt lat="37.8913002" lon="-122.6213868"><time>2026-04-12T09:35:52Z</time></trkpt>
<trkpt lat="37.8912335" lon="-122.6215813"><time>2026-04-12T09:36:08Z</time></trkpt>
<trkpt lat="37.8912129" lon="-122.6220077"><time>2026-04-12T09:36:41Z</time></trkpt>
<trkpt lat="37.8913229" lon="-122.6223832"><time>2026-04-12T09:37:11Z</time></trkpt>
<trkpt lat="37.8913859" lon="-122.6227396"><time>2026-04-12T09:37:38Z</time></trkpt>
<trkpt lat="37.8914183" lon="-122.6229843"><time>2026-04-12T09:37:57Z</time></trkpt>
<trkpt lat="37.8914113" lon="-122.6230613"><time>2026-04-12T09:38:03Z</time></trkpt>
<trkpt lat="37.8914139" lon="-122.6231177"><time>2026-04-12T09:38:07Z</time></trkpt>
<trkpt lat="37.8914363" lon="-122.6231798"><time>2026-04-12T09:38:12Z</time></trkpt>
<trkpt lat="37.8914080" lon="-122.6232515"><time>2026-04-12T09:38:18Z</time></trkpt>
<trkpt lat="37.8913787" lon="-122.6232922"><time>2026-04-12T09:38:22Z</time></trkpt>
<trkpt lat="37.8913675" lon="-122.6233306"><time>2026-04-12T09:38:25Z</time></trkpt>
<trkpt lat="37.8913722" lon="-122.6234334"><time>2026-04-12T09:38:33Z</time></trkpt>
<trkpt lat="37.8913716" lon="-122.6236707"><time>2026-04-12T09:38:51Z</time></trkpt>
<trkpt lat="37.8913562" lon="-122.6238162"><time>2026-04-12T09:39:02Z</time></trkpt>
<trkpt lat="37.8913356" lon="-122.6239282"><time>2026-04-12T09:39:11Z</time></trkpt>
<trkpt lat="37.8912431" lon="-122.6243846"><time>2026-04-12T09:39:46Z</time></trkpt>
<trkpt lat="37.8911315" lon="-122.6249527"><time>2026-04-12T09:40:30Z</time></trkpt>
<trkpt lat="37.8911271" lon="-122.6249831"><time>2026-04-12T09:40:33Z</time></trkpt>
<trkpt lat="37.8911311" lon="-122.6250135"><time>2026-04-12T09:40:35Z</time></trkpt>
<trkpt lat="37.8912185" lon="-122.6252424"><time>2026-04-12T09:40:54Z</time></trkpt>
<trkpt lat="37.8912431" lon="-122.6253234"><time>2026-04-12T09:41:01Z</time></trkpt>
<trkpt lat="37.8912435" lon="-122.6253452"><time>2026-04-12T09:41:02Z</time></trkpt>
<trkpt lat="37.8912451" lon="-122.6254275"><time>2026-04-12T09:41:09Z</time></trkpt>
<trkpt lat="37.8912373" lon="-122.6254587"><time>2026-04-12T09:41:11Z</time></trkpt>
<trkpt lat="37.8912213" lon="-122.6254772"><time>2026-04-12T09:41:13Z</time></trkpt>
<trkpt lat="37.8912115" lon="-122.6254835"><time>2026-04-12T09:41:14Z</time></trkpt>
<trkpt lat="37.8911774" lon="-122.6254946"><time>2026-04-12T09:41:17Z</time></trkpt>
<trkpt lat="37.8910730" lon="-122.6255534"><time>2026-04-12T09:41:28Z</time></trkpt>
<trkpt lat="37.8908141" lon="-122.6257329"><time>2026-04-12T09:41:57Z</time></trkpt>
<trkpt lat="37.8907496" lon="-122.6257828"><time>2026-04-12T09:42:04Z</time></trkpt>
<trkpt lat="37.8907347" lon="-122.6257993"><time>2026-04-12T09:42:06Z</time></trkpt>
<trkpt lat="37.8907361" lon="-122.6258117"><time>2026-04-12T09:42:07Z</time></trkpt>
<trkpt lat="37.8907460" lon="-122.6258209"><time>2026-04-12T09:42:08Z</time></trkpt>
<trkpt lat="37.8908322" lon="-122.6258016"><time>2026-04-12T09:42:16Z</time></trkpt>
<trkpt lat="37.8909554" lon="-122.6257987"><time>2026-04-12T09:42:28Z</time></trkpt>
<trkpt lat="37.8910363" lon="-122.6258162"><time>2026-04-12T09:42:36Z</time></trkpt>
<trkpt lat="37.8911741" lon="-122.6259066"><time>2026-04-12T09:42:50Z</time></trkpt>
<trkpt lat="37.8913257" lon="-122.6260352"><time>2026-04-12T09:43:08Z</time></trkpt>
<trkpt lat="37.8914943" lon="-122.6261767"><time>2026-04-12T09:43:27Z</time></trkpt>
<trkpt lat="37.8915730" lon="-122.6262623"><time>2026-04-12T09:43:37Z</time></trkpt>
<trkpt lat="37.8916898" lon="-122.6264377"><time>2026-04-12T09:43:54Z</time></trkpt>
<trkpt lat="37.8917394" lon="-122.6265231"><time>2026-04-12T09:44:02Z</time></trkpt>
<trkpt lat="37.8917861" lon="-122.6267086"><time>2026-04-12T09:44:17Z</time></trkpt>
<trkpt lat="37.8918377" lon="-122.6271308"><time>2026-04-12T09:44:49Z</time></trkpt>
<trkpt lat="37.8918692" lon="-122.6274920"><time>2026-04-12T09:45:17Z</time></trkpt>
<trkpt lat="37.8919026" lon="-122.6278303"><time>2026-04-12T09:45:42Z</time></trkpt>
<trkpt lat="37.8919020" lon="-122.6278565"><time>2026-04-12T09:45:44Z</time></trkpt>
<trkpt lat="37.8918717" lon="-122.6280754"><time>2026-04-12T09:46:01Z</time></trkpt>
<trkpt lat="37.8918644" lon="-122.6281116"><time>2026-04-12T09:46:04Z</time></trkpt>
<trkpt lat="37.8918623" lon="-122.6281514"><time>2026-04-12T09:46:07Z</time></trkpt>
<trkpt lat="37.8918673" lon="-122.6281892"><time>2026-04-12T09:46:10Z</time></trkpt>
<trkpt lat="37.8918750" lon="-122.6282237"><time>2026-04-12T09:46:12Z</time></trkpt>
<trkpt lat="37.8918903" lon="-122.6282616"><time>2026-04-12T09:46:16Z</time></trkpt>
<trkpt lat="37.8919741" lon="-122.6283888"><time>2026-04-12T09:46:28Z</time></trkpt>
<trkpt lat="37.8920671" lon="-122.6285912"><time>2026-04-12T09:46:46Z</time></trkpt>
<trkpt lat="37.8921217" lon="-122.6287419"><time>2026-04-12T09:46:58Z</time></trkpt>
<trkpt lat="37.8921746" lon="-122.6288621"><time>2026-04-12T09:47:09Z</time></trkpt>
<trkpt lat="37.8922481" lon="-122.6290010"><time>2026-04-12T09:47:21Z</time></trkpt>
<trkpt lat="37.8924277" lon="-122.6294046"><time>2026-04-12T09:47:56Z</time></trkpt>
<trkpt lat="37.8925015" lon="-122.6295807"><time>2026-04-12T09:48:11Z</time></trkpt>
<trkpt lat="37.8925529" lon="-122.6296951"><time>2026-04-12T09:48:21Z</time></trkpt>
<trkpt lat="37.8927063" lon="-122.6299682"><time>2026-04-12T09:48:46Z</time></trkpt>
<trkpt lat="37.8927685" lon="-122.6301005"><time>2026-04-12T09:48:58Z</time></trkpt>
<trkpt lat="37.8928050" lon="-122.6301889"><time>2026-04-12T09:49:05Z</time></trkpt>
<trkpt lat="37.8928372" lon="-122.6302567"><time>2026-04-12T09:49:11Z</time></trkpt>
<trkpt lat="37.8930834" lon="-122.6306843"><time>2026-04-12T09:49:51Z</time></trkpt>
<trkpt lat="37.8931173" lon="-122.6307589"><time>2026-04-12T09:49:58Z</time></trkpt>
<trkpt lat="37.8932669" lon="-122.6310279"><time>2026-04-12T09:50:22Z</time></trkpt>
<trkpt lat="37.8933262" lon="-122.6311333"><time>2026-04-12T09:50:32Z</time></trkpt>
<trkpt lat="37.8934353" lon="-122.6313137"><time>2026-04-12T09:50:49Z</time></trkpt>
<trkpt lat="37.8935079" lon="-122.6314364"><time>2026-04-12T09:51:01Z</time></trkpt>
<trkpt lat="37.8935788" lon="-122.6315208"><time>2026-04-12T09:51:10Z</time></trkpt>
<trkpt lat="37.8936027" lon="-122.6315596"><time>2026-04-12T09:51:14Z</time></trkpt>
<trkpt lat="37.8936703" lon="-122.6317175"><time>2026-04-12T09:51:27Z</time></trkpt>
<trkpt lat="37.8936960" lon="-122.6318310"><time>2026-04-12T09:51:36Z</time></trkpt>
<trkpt lat="37.8937121" lon="-122.6318595"><time>2026-04-12T09:51:39Z</time></trkpt>
<trkpt lat="37.8937565" lon="-122.6319154"><time>2026-04-12T09:51:45Z</time></trkpt>
<trkpt lat="37.8937785" lon="-122.6319383"><time>2026-04-12T09:51:47Z</time></trkpt>
<trkpt lat="37.8937915" lon="-122.6319703"><time>2026-04-12T09:51:50Z</time></trkpt>
<trkpt lat="37.8938247" lon="-122.6320324"><time>2026-04-12T09:51:56Z</time></trkpt>
<trkpt lat="37.8938413" lon="-122.6320472"><time>2026-04-12T09:51:58Z</time></trkpt>
<trkpt lat="37.8938915" lon="-122.6320675"><time>2026-04-12T09:52:03Z</time></trkpt>
<trkpt lat="37.8939029" lon="-122.6320754"><time>2026-04-12T09:52:04Z</time></trkpt>
<trkpt lat="37.8939413" lon="-122.6321053"><time>2026-04-12T09:52:08Z</time></trkpt>
<trkpt lat="37.8940258" lon="-122.6321385"><time>2026-04-12T09:52:17Z</time></trkpt>
<trkpt lat="37.8940522" lon="-122.6321456"><time>2026-04-12T09:52:19Z</time></trkpt>
<trkpt lat="37.8940702" lon="-122.6321640"><time>2026-04-12T09:52:22Z</time></trkpt>
<trkpt lat="37.8940866" lon="-122.6321889"><time>2026-04-12T09:52:24Z</time></trkpt>
<trkpt lat="37.8941110" lon="-122.6322494"><time>2026-04-12T09:52:29Z</time></trkpt>
<trkpt lat="37.8941753" lon="-122.6324378"><time>2026-04-12T09:52:45Z</time></trkpt>
<trkpt lat="37.8942191" lon="-122.6325562"><time>2026-04-12T09:52:54Z</time></trkpt>
<trkpt lat="37.8942664" lon="-122.6326350"><time>2026-04-12T09:53:02Z</time></trkpt>
<trkpt lat="37.8943429" lon="-122.6327435"><time>2026-04-12T09:53:13Z</time></trkpt>
<trkpt lat="37.8943885" lon="-122.6327975"><time>2026-04-12T09:53:19Z</time></trkpt>
<trkpt lat="37.8945360" lon="-122.6329444"><time>2026-04-12T09:53:37Z</time></trkpt>
<trkpt lat="37.8945659" lon="-122.6329722"><time>2026-04-12T09:53:40Z</time></trkpt>
<trkpt lat="37.8946894" lon="-122.6330621"><time>2026-04-12T09:53:54Z</time></trkpt>
<trkpt lat="37.8947842" lon="-122.6331229"><time>2026-04-12T09:54:04Z</time></trkpt>
<trkpt lat="37.8948064" lon="-122.6331322"><time>2026-04-12T09:54:06Z</time></trkpt>
<trkpt lat="37.8948235" lon="-122.6331377"><time>2026-04-12T09:54:08Z</time></trkpt>
<trkpt lat="37.8948421" lon="-122.6331356"><time>2026-04-12T09:54:10Z</time></trkpt>
<trkpt lat="37.8949010" lon="-122.6331365"><time>2026-04-12T09:54:15Z</time></trkpt>
<trkpt lat="37.8949750" lon="-122.6331528"><time>2026-04-12T09:54:22Z</time></trkpt>
<trkpt lat="37.8949987" lon="-122.6331534"><time>2026-04-12T09:54:25Z</time></trkpt>
<trkpt lat="37.8950815" lon="-122.6331350"><time>2026-04-12T09:54:33Z</time></trkpt>
<trkpt lat="37.8953423" lon="-122.6330075"><time>2026-04-12T09:54:59Z</time></trkpt>
<trkpt lat="37.8954158" lon="-122.6329448"><time>2026-04-12T09:55:08Z</time></trkpt>
<trkpt lat="37.8954401" lon="-122.6329026"><time>2026-04-12T09:55:12Z</time></trkpt>
<trkpt lat="37.8954509" lon="-122.6328469"><time>2026-04-12T09:55:16Z</time></trkpt>
<trkpt lat="37.8954451" lon="-122.6327293"><time>2026-04-12T09:55:25Z</time></trkpt>
<trkpt lat="37.8954079" lon="-122.6326279"><time>2026-04-12T09:55:33Z</time></trkpt>
<trkpt lat="37.8953968" lon="-122.6325455"><time>2026-04-12T09:55:40Z</time></trkpt>
<trkpt lat="37.8954077" lon="-122.6324918"><time>2026-04-12T09:55:44Z</time></trkpt>
<trkpt lat="37.8954277" lon="-122.6324671"><time>2026-04-12T09:55:47Z</time></trkpt>
<trkpt lat="37.8954491" lon="-122.6324594"><time>2026-04-12T09:55:49Z</time></trkpt>
<trkpt lat="37.8954713" lon="-122.6324581"><time>2026-04-12T09:55:51Z</time></trkpt>
<trkpt lat="37.8954969" lon="-122.6324690"><time>2026-04-12T09:55:53Z</time></trkpt>
<trkpt lat="37.8955425" lon="-122.6325076"><time>2026-04-12T09:55:59Z</time></trkpt>
<trkpt lat="37.8956120" lon="-122.6325630"><time>2026-04-12T09:56:06Z</time></trkpt>
<trkpt lat="37.8958150" lon="-122.6326600"><time>2026-04-12T09:56:27Z</time></trkpt>
<trkpt lat="37.8959170" lon="-122.6327510"><time>2026-04-12T09:56:39Z</time></trkpt>
<trkpt lat="37.8960830" lon="-122.6329420"><time>2026-04-12T09:57:00Z</time></trkpt>
<trkpt lat="37.8961350" lon="-122.6330190"><time>2026-04-12T09:57:08Z</time></trkpt>
<trkpt lat="37.8961650" lon="-122.6330980"><time>2026-04-12T09:57:15Z</time></trkpt>
<trkpt lat="37.8963104" lon="-122.6337218"><time>2026-04-12T09:58:04Z</time></trkpt>
<trkpt lat="37.8963056" lon="-122.6339594"><time>2026-04-12T09:58:22Z</time></trkpt>
<trkpt lat="37.8964040" lon="-122.6340400"><time>2026-04-12T09:58:33Z</time></trkpt>
<trkpt lat="37.8965360" lon="-122.6345630"><time>2026-04-12T09:59:14Z</time></trkpt>
<trkpt lat="37.8965650" lon="-122.6347540"><time>2026-04-12T09:59:29Z</time></trkpt>
<trkpt lat="37.8965670" lon="-122.6348900"><time>2026-04-12T09:59:39Z</time></trkpt>
<trkpt lat="37.8965508" lon="-122.6350323"><time>2026-04-12T09:59:50Z</time></trkpt>
<trkpt lat="37.8965139" lon="-122.6351650"><time>2026-04-12T10:00:00Z</time></trkpt>
<trkpt lat="37.8965166" lon="-122.6352501"><time>2026-04-12T10:00:07Z</time></trkpt>
<trkpt lat="37.8965207" lon="-122.6352854"><time>2026-04-12T10:00:09Z</time></trkpt>
<trkpt lat="37.8965307" lon="-122.6353159"><time>2026-04-12T10:00:12Z</time></trkpt>
<trkpt lat="37.8965658" lon="-122.6353713"><time>2026-04-12T10:00:17Z</time></trkpt>
<trkpt lat="37.8965776" lon="-122.6354006"><time>2026-04-12T10:00:20Z</time></trkpt>
<trkpt lat="37.8965770" lon="-122.6354736"><time>2026-04-12T10:00:25Z</time></trkpt>
<trkpt lat="37.8965690" lon="-122.6355814"><time>2026-04-12T10:00:33Z</time></trkpt>
<trkpt lat="37.8966076" lon="-122.6357053"><time>2026-04-12T10:00:43Z</time></trkpt>
<trkpt lat="37.8965436" lon="-122.6358687"><time>2026-04-12T10:00:57Z</time></trkpt>
<trkpt lat="37.8965495" lon="-122.6359220"><time>2026-04-12T10:01:01Z</time></trkpt>
<trkpt lat="37.8965960" lon="-122.6359678"><time>2026-04-12T10:01:07Z</time></trkpt>
<trkpt lat="37.8966415" lon="-122.6360340"><time>2026-04-12T10:01:13Z</time></trkpt>
<trkpt lat="37.8967426" lon="-122.6361177"><time>2026-04-12T10:01:25Z</time></trkpt>
<trkpt lat="37.8968781" lon="-122.6361409"><time>2026-04-12T10:01:38Z</time></trkpt>
<trkpt lat="37.8969741" lon="-122.6361743"><time>2026-04-12T10:01:48Z</time></trkpt>
<trkpt lat="37.8970541" lon="-122.6362425"><time>2026-04-12T10:01:57Z</time></trkpt>
<trkpt lat="37.8972645" lon="-122.6364482"><time>2026-04-12T10:02:22Z</time></trkpt>
<trkpt lat="37.8975064" lon="-122.6367089"><time>2026-04-12T10:02:52Z</time></trkpt>
<trkpt lat="37.8978193" lon="-122.6370525"><time>2026-04-12T10:03:32Z</time></trkpt>
<trkpt lat="37.8978494" lon="-122.6370905"><time>2026-04-12T10:03:36Z</time></trkpt>
<trkpt lat="37.8978610" lon="-122.6371153"><time>2026-04-12T10:03:38Z</time></trkpt>
<trkpt lat="37.8978656" lon="-122.6371440"><time>2026-04-12T10:03:40Z</time></trkpt>
<trkpt lat="37.8978596" lon="-122.6371755"><time>2026-04-12T10:03:43Z</time></trkpt>
<trkpt lat="37.8978409" lon="-122.6372480"><time>2026-04-12T10:03:49Z</time></trkpt>
</trkseg></trk>
</gpx>
